C/2021 K1 (ATLAS),e,16.2759,140.9047,184.2859,12.71256,0.0217448,0.80352769,5.3384,01/05.0/2022,2000,g 11.0,4.0
# From MPEC 2021-R75
C/2021 K2 (MASTER),h,09/09.2450/2021,100.8379,282.2482,343.3330,1.000607,5.466707,2000,8.0,4.0
# From MPEC 2021-U31
C/2021 K3 (Catalina),h,02/02.6515/2022,134.7779,114.4509,181.9912,1.003369,5.229850,2000,10.0,4.0
# From MPEC 2021-W31
P/2021 L2 (Leonard),e,21.0684,266.6620,51.5278,4.051697,0.1208506,0.52157550,19.8814,01/05.0/2022,2000,g 17.0,4.0
# From MPEC 2021-WD8
C/2021 L3 (Borisov),h,02/13.9956/2022,78.5798,344.9681,91.6138,1.001121,8.457343,2000,6.0,4.0
# From MPEC 2021-R75
P/2021 L4 (PANSTARRS),e,16.9618,243.2250,234.5902,3.164903,0.1750505,0.11859179,149.5144,01/05.0/2022,2000,g 13.5,4.0
# From MPEC 2021-P47
P/2021 N1 (ZTF),e,11.5056,301.1651,21.1950,2.977087,0.1918743,0.67675495,40.7639,01/05.0/2022,2000,g 19.0,4.0
# From MPEC 2022-A21
P/2021 N2 (Fuls),e,13.0628,221.7424,177.3382,6.933020,0.0539909,0.45238945,2.8476,01/05.0/2022,2000,g  9.5,4.0
# From MPEC 2021-W31
C/2021 N3 (PANSTARRS),e,26.7506,337.4942,304.6153,161.3189,0.0004810,0.96461984,0.2424,01/05.0/2022,2000,g  8.5,4.0
# From MPEC 2022-A21
C/2021 O1 (Nishimura),e,27.5752,41.6063,74.4550,2972,0.0000061,0.99973522,0.0000,08/13.9314/2021,2000,g 10.5,4.0
# From MPEC 2022-A21
C/2021 O3 (PANSTARRS),h,04/21.0466/2022,56.7872,189.0206,299.9893,1.000122,0.287323,2000,10.5,4.0
# From MPEC 2021-W31
C/2021 P1 (PANSTARRS),e,51.6303,359.6737,40.3919,7017,0.0000017,0.99937662,0.0000,06/01.9183/2022,2000,g 11.0,4.0
# From MPEC 2021-W31
C/2021 P2 (PANSTARRS),e,150.0256,32.0013,76.5088,3208,0.0000054,0.99841940,0.0000,01/21.8314/2023,2000,g  9.0,4.0
# From MPEC 2021-W31
P/2021 P3 (PANSTARRS),e,27.1606,358.2386,334.1810,4.417736,0.1061462,0.33993365,23.2696,01/05.0/2022,2000,g 14.0,4.0
# From MPEC 2022-A21
C/2021 P4 (ATLAS),e,56.3115,348.0960,175.8228,312.3754,0.0001785,0.99654111,0.0000,07/30.3832/2022,2000,g  9.5,4.0
# From MPEC 2021-Y10
C/2021 Q3 (ATLAS),e,77.7771,307.9024,114.0843,74.69434,0.0015268,0.93031909,359.9679,01/05.0/2022,2000,g  8.0,4.0
# From MPEC 2021-UA9
C/2021 Q4 (Fuls),h,06/09.1632/2023,71.4737,183.3325,146.9090,1.003352,7.566750,2000,6.0,4.0
# From MPEC 2021-WD8
P/2021 Q5 (ATLAS),e,10.7341,239.7733,180.8960,3.285806,0.1654784,0.62428136,21.1095,01/05.0/2022,2000,g 15.0,4.0
# From MPEC 2021-Y10
C/2021 Q6 (PANSTARRS),e,161.8470,133.5397,140.8235,8563,0.0000012,0.99898231,0.0000,03/21.6800/2024,2000,g  6.0,4.0
# From MPEC 2021-W31
P/2021 R1 (PANSTARRS),e,5.5213,143.4083,220.3148,8.418060,0.0403539,0.41960861,0.7430,01/05.0/2022,2000,g 11.0,4.0
# From MPEC 2021-W31
C/2021 R2 (PANSTARRS),e,134.4644,16.2794,32.3357,1963,0.0000113,0.99627550,0.0000,12/25.5905/2021,2000,g  7.5,4.0
# From MPEC 2021-W31
P/2021 R3 (PANSTARRS),e,19.9282,304.2384,2.9427,3.778014,0.1342174,0.33167137,29.9508,01/05.0/2022,2000,g 16.0,4.0
# From MPEC 2021-W31
P/2021 R4 (Wierzchos),e,21.0400,321.2559,56.6303,5.617992,0.0740172,0.58597158,6.1483,01/05.0/2022,2000,g 16.0,4.0
# From MPEC 2022-A21
P/2021 R5 (Rankin),e,7.8535,219.9602,167.3491,4.796047,0.0938380,0.30719146,359.3390,01/05.0/2022,2000,g 12.0,4.0
# From MPEC 2021-W31
P/2021 R6 (Groeller),e,34.9269,176.1151,220.7271,6.273045,0.0627316,0.59315853,4.0849,01/05.0/2022,2000,g 14.5,4.0
# From MPEC 2021-W31
C/2021 R7 (PANSTARRS),e,158.8556,170.1439,140.0351,1251,0.0000223,0.99549156,0.0000,04/14.8892/2021,2000,g 10.5,4.0
# From MPEC 2021-Y10
P/2021 R8 (Sheppard),e,2.2033,167.0278,190.7783,3.017398,0.1880422,0.29377265,16.8345,01/05.0/2022,2000,g 18.5,4.0
# From MPEC 2022-A21
C/2021 S1 (ATLAS),h,03/01.1973/2022,52.0914,299.8711,148.2138,1.000751,6.118818,2000,7.0,4.0
# From MPEC 2022-A21
C/2021 S3 (PANSTARRS),e,58.5465,215.6487,6.9163,3851,0.0000041,0.99965769,0.0000,02/14.8633/2024,2000,g  5.5,4.0
# From MPEC 2022-A21
C/2021 S4 (Tsuchinshan),e,17.4814,5.4988,72.7545,163.1145,0.0004731,0.95897624,359.6565,01/05.0/2022,2000,g  6.5,4.0
# From MPEC 2021-Y10
C/2021 T1 (Lemmon),e,140.3487,56.8134,51.5038,1012,0.0000306,0.99697892,0.0000,10/14.0902/2021,2000,g 12.5,4.0
# From MPEC 2022-A21
C/2021 T2 (Fuls),h,06/07.8976/2022,117.5257,223.2317,263.5969,1.000124,1.247618,2000,12.0,4.0
# From MPEC 2022-A21
C/2021 T4 (Lemmon),e,160.7565,257.7974,329.7816,8920,0.0000012,0.99983385,0.0000,07/31.5479/2023,2000,g  7.5,4.0
# From MPEC 2022-A21
P/2021 U1 (Wierzchos),e,30.5606,246.7895,145.0470,8.511700,0.0396899,0.71274744,3.8109,01/05.0/2022,2000,g 14.5,4.0
# From MPEC 2022-A21
P/2021 U3 (Attard-Maury),e,69.9654,75.1128,335.2137,4.193212,0.1147847,0.55001821,8.2797,01/05.0/2022,2000,g 15.5,4.0
# From MPEC 2021-W31
C/2021 U4 (Leonard),e,152.8776,241.8040,237.2792,44.87061,0.0032791,0.96016481,0.0461,01/05.0/2022,2000,g 17.0,4.0
# From MPEC 2022-A21
C/2021 U5 (Catalina),e,39.0438,182.8051,321.3626,314.3241,0.0001769,0.99247447,0.0000,01/26.4103/2022,2000,g 13.0,4.0
# From MPEC 2021-Y10
C/2021 V1 (Rankin),e,71.4426,207.6527,195.1062,661.6488,0.0000579,0.99544551,0.0000,04/30.3723/2022,2000,g 13.0,4.0
# From MPEC 2022-A21
P/2021 V2 (Fuls),e,12.6956,232.2925,259.8315,9.034239,0.0362967,0.61291573,346.1497,01/05.0/2022,2000,g 10.0,4.0
# From MPEC 2021-Y10
P/2021 V3 (PANSTARRS),e,3.6897,245.8688,206.6999,4.558313,0.1012740,0.25404631,337.1761,01/05.0/2022,2000,g 13.0,4.0
# From MPEC 2022-A21
A/2021 X1,e,140.1328,10.6201,334.7922,3495,0.0000048,0.99907689,0.0000,05/27.4735/2023,2000,g 11.5,2.0
# From MPEC 2022-A21
A/2021 X2,h,07/08.0582/2022,137.1470,228.7930,193.2532,1.001790,2.995128,2000,16.0,2.0
# From  98, 1083
1P/Halley,e,162.2283,58.9399,111.8693,17.87247,0.0130445,0.96629253,171.0153,01/05.0/2022,2000,g  4.0,6.0
# From MPEC 2021-TD0
2P/Encke,e,11.7557,334.5011,186.7113,2.218588,0.2982559,0.84974222,165.7266,01/05.0/2022,2000,g 11.5,6.0
# From MPEC 2022-A21
4P/Faye,e,8.0083,192.9308,207.0034,3.823974,0.1318049,0.57664538,15.5738,01/05.0/2022,2000,g  8.0,6.0
# From MPEC 2022-A21
6P/d'Arrest,e,19.5122,138.9350,178.0905,3.497851,0.1506614,0.61274691,16.4576,01/05.0/2022,2000,g  7.5,16.0
# From MPEC 2021-Y10
7P/Pons-Winnecke,e,22.3624,93.3617,172.5871,3.413361,0.1562898,0.63849855,34.8372,01/05.0/2022,2000,g 10.0,6.0
# From MPEC 2021-Y10
8P/Tuttle,e,54.9112,270.2019,207.4883,5.707071,0.0722910,0.82022388,9.4169,01/05.0/2022,2000,g  8.0,8.0
# From MPEC 2022-A21
9P/Tempel,e,10.4700,68.7142,179.3488,3.146083,0.1766236,0.50915688,349.5883,01/05.0/2022,2000,g  5.5,10.0
# From MPEC 2022-A21
10P/Tempel,e,12.0393,117.8095,195.4988,3.060748,0.1840614,0.53847829,52.7803,01/05.0/2022,2000,g  5.0,10.0
# From MPEC 2021-UA9
11P/Tempel-Swift-LINEAR,e,14.4217,238.8974,167.9632,3.283788,0.1656309,0.57718028,67.0300,01/05.0/2022,2000,g 17.0,4.0
# From  27, 604
12P/Pons-Brooks,e,74.1495,255.7917,198.9899,17.15307,0.0138737,0.95442578,348.3925,01/05.0/2022,2000,g  5.0,6.0
# From  27, 604
13P/Olbers,e,44.6190,85.9304,64.4152,16.74476,0.0143842,0.92982516,346.9358,01/05.0/2022,2000,g  5.0,6.0
# From MPEC 2021-F20
14P/Wolf,e,27.9186,202.0466,159.0414,4.258474,0.1121561,0.35709577,167.5276,01/05.0/2022,2000,g  5.5,12.0
# From MPEC 2022-A21
15P/Finlay,e,6.7977,13.7124,347.8332,3.506186,0.1501245,0.71704784,26.3502,01/05.0/2022,2000,g 12.0,4.0
# From MPEC 2022-A21
16P/Brooks,e,3.0117,138.8703,245.1962,3.656803,0.1409457,0.48634253,36.8860,01/05.0/2022,2000,g  7.5,10.0
# From MPEC 2022-A21
17P/Holmes,e,19.0320,326.6213,24.4938,3.635882,0.1421639,0.42763264,45.3681,01/05.0/2022,2000,g 10.0,6.0
# From MPEC 2022-A21
19P/Borrelly,e,29.3047,74.2472,351.9180,3.604951,0.1439975,0.63764575,355.9930,01/05.0/2022,2000,g  4.5,10.0
# From MPEC 2021-F20
21P/Giacobini-Zinner,e,32.0468,195.3457,172.8672,3.495556,0.1508099,0.71110724,182.7754,01/05.0/2022,2000,g 11.4,4.0
# From MPEC 2021-S45
22P/Kopff,e,4.7420,120.8339,163.0188,3.440224,0.1544628,0.54874540,348.8590,01/05.0/2022,2000,g  3.0,10.4
# From MPC 14747
23P/Brorsen-Metcalf,e,19.1531,312.3414,128.8708,16.94768,0.0141266,0.97158493,0.0000,08/05.0496/1989,2000,g 10.0,6.0
# From MPC110085
24P/Schaumasse,e,11.5201,78.4978,58.3337,4.053683,0.1207618,0.70800379,182.9975,01/05.0/2022,2000,g  6.5,14.0
# From MPEC 2021-WD8
26P/Grigg-Skjellerup,e,22.4322,211.5391,2.1685,3.014590,0.1883050,0.64029264,224.4949,01/05.0/2022,2000,g 12.0,16.0
# From MPC 78188
27P/Crommelin,e,29.2514,250.6229,195.9157,9.183682,0.0354143,0.91846725,135.2396,01/05.0/2022,2000,g 12.0,8.0
# From MPEC 2022-A21
28P/Neujmin,e,14.3121,346.3322,347.4199,6.976340,0.0534888,0.77372778,15.9996,01/05.0/2022,2000,g  8.5,6.0
# From MPEC 2022-A21
29P/Schwassmann-Wachmann,e,9.3663,312.3812,49.7691,6.041753,0.0663681,0.04478884,66.8177,01/05.0/2022,2000,g  4.0,4.0
# From MPC110085
30P/Reinmuth,e,8.1581,118.0755,9.5861,3.708150,0.1380283,0.52123133,228.4403,01/05.0/2022,2000,g  9.5,6.0
# From MPEC 2021-F20
31P/Schwassmann-Wachmann,e,4.5475,114.1083,18.0561,4.237586,0.1129864,0.19214220,103.4674,01/05.0/2022,2000,g 13.1,4.0
# From MPC 92276
32P/Comas Sola,e,9.8708,55.5214,54.7269,4.518567,0.1026132,0.55917292,274.1359,01/05.0/2022,2000,g  6.5,8.0
# From MPEC 2013-O31
33P/Daniel,e,22.2980,66.3143,20.5153,4.086166,0.1193246,0.45165125,235.6431,01/05.0/2022,2000,g 10.0,12.0
# From  15, 452
35P/Herschel-Rigollet,e,65.230,356.705,28.961,28.5563,0.006459,0.9740381,0.000,01/12.4406/2092,2000,g  9.0,4.0
# From MPEC 2021-S45
36P/Whipple,e,9.9520,181.8457,200.9139,4.134764,0.1172271,0.26902611,68.3093,01/05.0/2022,2000,g  8.5,6.0
# From MPEC 2021-F20
37P/Forbes,e,8.9562,314.5630,330.1210,3.460759,0.1530901,0.53357547,205.4169,01/05.0/2022,2000,g 13.8,4.0
# From MPEC 2018-S50
38P/Stephan-Oterma,e,18.3696,77.9479,359.5010,11.23673,0.0261664,0.85909630,30.1131,01/05.0/2022,2000,g  3.5,12.0
# From MPEC 2022-A21
39P/Oterma,e,1.5546,298.9947,96.9156,7.365068,0.0493105,0.22289497,334.7243,01/05.0/2022,2000,g  7.0,6.0
# From MPC100283
40P/Vaisala,e,11.4694,133.7795,47.3956,4.953242,0.0894066,0.62967068,233.7174,01/05.0/2022,2000,g  5.5,12.0
# From MPC105240
